SIRION PATHFINDER-2     
1 43759U 18099B   26141.55395484  .00003764  00000+0  20909-3 0  9994
2 43759  97.4267 191.2470 0009620  41.9321 318.2646 15.14272291408596
CORVUS BC4              
1 43767U 18099K   26141.59077099  .00003119  00000+0  18390-3 0  9991
2 43767  97.4085 185.3519 0010105  94.0235 266.2151 15.12248212408388
M2 PATHFINDER           
1 45727U 20037E   26141.51175674  .00000931  00000+0  70978-4 0  9994
2 45727  97.8155 332.4456 0010056 238.9667 121.0572 15.04541732321480
NETSAT-4                
1 46504U 20068U   26140.95894731  .00012073  00000+0  27705-3 0  9990
2 46504  97.8616 147.0338 0007302  69.3171 290.8858 15.42862153311577
NETSAT-3                
1 46505U 20068V   26141.00886066  .00012570  00000+0  30031-3 0  9998
2 46505  97.8666 145.3392 0007366  82.1229 278.0853 15.41639965311497
NETSAT-1                
1 46506U 20068W   26141.46109015  .00009338  00000+0  28707-3 0  9996
2 46506  97.8754 140.4672 0006977 100.8529 259.3498 15.33913256311206
NETSAT-2                
1 46507U 20068X   26141.48758293  .00016128  00000+0  34677-3 0  9995
2 46507  97.8632 147.4068 0006208  91.2398 268.9560 15.44735783311612
GREENCUBE (IO-117)      
1 53109U 22080E   26141.41483570 -.00000003  00000+0  00000+0 0  9998
2 53109  70.1430 307.5592 0008838 295.9766  63.9983  6.42583336 90341
SITRO-AIS 5 (KATYS)     
1 57176U 23091L   26141.56705239  .00007887  00000+0  28430-3 0  9991
2 57176  97.5069 205.2252 0011567 188.3908 171.7140 15.28761139160279
SITRO-AIS 6 (CHIRKIN)   
1 57192U 23091AC  26141.55120334  .00006277  00000+0  25133-3 0  9994
2 57192  97.5076 204.4669 0011693 191.7407 168.3559 15.25359388160227
SITRO-AIS 8 (ANOKHIN)   
1 57193U 23091AD  26141.56425096  .00009488  00000+0  31566-3 0  9993
2 57193  97.5064 206.7054 0010874 183.8997 176.2161 15.31319210160374
SITRO-AIS 7 (FARTUSHNIY)
1 57194U 23091AE  26141.54901443  .00006101  00000+0  24656-3 0  9998
2 57194  97.5074 204.3033 0011504 192.7918 167.3029 15.25060467160217
SITRO-AIS 10 (BURDAEV)  
1 57199U 23091AK  26141.57503225  .00013462  00000+0  36796-3 0  9998
2 57199  97.5086 211.5026 0007777 158.2163 201.9414 15.37480700160675
SITRO-AIS 9 (SHCHUKIN)  
1 57201U 23091AM  26141.59327667  .00013117  00000+0  36389-3 0  9993
2 57201  97.5084 211.2714 0007973 158.5847 201.5732 15.37023624160664
SITRO-AIS 12 (SMIRENNIY)
1 57204U 23091AQ  26141.58887336  .00013067  00000+0  35922-3 0  9995
2 57204  97.5096 211.7174 0007734 153.2960 206.8684 15.37309926160686
SITRO-AIS 11 (SHEFFER)  
1 57208U 23091AU  26141.54434582  .00013892  00000+0  37687-3 0  9992
2 57208  97.5095 211.9022 0007649 153.3016 206.8624 15.37706302160695
SITRO-AIS 25            
1 59066U 24039R   26141.64211581  .00002705  00000+0  21122-3 0  9990
2 59066  95.3915 216.8534 0147064  61.4121 300.1811 14.93315114120768
SITRO-AIS 26            
1 59067U 24039S   26141.63990133  .00002666  00000+0  20919-3 0  9996
2 59067  95.3916 216.7550 0147407  61.9507 299.6536 14.93116660120751
SITRO-AIS 27            
1 59068U 24039T   26141.61754596  .00003438  00000+0  26672-3 0  9996
2 59068  95.3917 216.9991 0146406  60.7451 300.8321 14.93527920120771
SITRO-AIS 28            
1 59071U 24039U   26141.59559339  .00002984  00000+0  23179-3 0  9999
2 59071  95.3915 217.0300 0146190  60.6367 300.9367 14.93562181120773
GRBBETA                 
1 60237U 24128C   26141.47165109  .00003110  00000+0  22017-3 0  9991
2 60237  61.9903 309.9817 0044336 129.1852 231.3192 15.06391270102247
OOV-CUBE (TUBSAT-30)    
1 60240U 24128F   26141.03934605  .00001622  00000+0  13410-3 0  9995
2 60240  61.9943 320.2264 0048056 127.8545 232.6909 15.02616790102034
ROBUSTA-3A (MEDITERRAN*)
1 60243U 24128J   26141.47388385  .00006224  00000+0  37286-3 0  9994
2 60243  61.9870 302.6815 0045190 122.8595 237.6862 15.11203799102380
LASARSAT                
1 62391U 24247Q   26140.82849373  .00022182  00000+0  47396-3 0  9993
2 62391  44.9760  55.7382 0005860 176.3157 183.7776 15.44503182 79088
CROCUBE                 
1 62394U 24247T   26141.11596255  .00023976  00000+0  48363-3 0  9994
2 62394  44.9732  51.8723 0005581 180.8555 179.2327 15.46151390 79150
FORESAIL-1 PRIME        
1 66778U 25276DS  26141.44142204  .00003229  00000+0  16017-3 0  9994
2 66778  97.4202 215.2063 0002609 162.0335 198.0992 15.18421959 26344
KNACKSAT-2              
1 67683U 98067XZ  26141.03792952  .00031564  00000+0  42652-3 0  9991
2 67683  51.6301  70.7726 0012161  99.9810 260.2555 15.57383266 16046
